HTV-X1                  
1 66174U 25241A   25328.86728725  .00014562  00000+0  27142-3 0  9999
2 66174  51.6314 230.9455 0003895 164.8499 195.2607 15.49056620  1458
GAOFEN-14 02            
1 66175U 25242A   25318.46556247  .00014152  00000+0  52318-3 0  9992
2 66175  97.4386  30.6022 0011017 193.9078 166.1859 15.27766001  2951
CZ-3B R/B               
1 66176U 25242B   25309.65934494  .00029904  00000+0  58815-3 0  9997
2 66176  97.4571  21.8726 0103778   5.1082 355.1197 15.41457457  1622
STARLINK-35352          
1 66177U 25243A   25329.00004630 -.02010943  00000+0 -53614-1 0  9997
2 66177  53.1594  11.6568 0001314  92.0293 259.7970 15.41184983  5735
STARLINK-35363          
1 66178U 25243B   25329.00004630 -.02014942  00000+0 -57473-1 0  9998
2 66178  53.1595  11.6934 0001185  96.9109 236.4021 15.39167889  5797
STARLINK-35346          
1 66179U 25243C   25329.00004630 -.02017730  00000+0 -59642-1 0  9997
2 66179  53.1599  11.7150 0001127 100.4103 221.8400 15.38092561  5730
STARLINK-35335          
1 66180U 25243D   25329.00004630 -.02015370  00000+0 -61507-1 0  9990
2 66180  53.1590  11.7394 0001198 102.8925 208.2873 15.37111751  5734
STARLINK-35342          
1 66181U 25243E   25329.00004630 -.01976093  00000+0 -61417-1 0  9998
2 66181  53.1600  11.7540 0001367 100.3302 202.7749 15.36476736  5737
STARLINK-35333          
1 66182U 25243F   25329.00004630 -.02335233  00000+0 -79021-1 0  9995
2 66182  53.1590  11.8236 0001036 127.0078 141.2279 15.33858984  5683
STARLINK-35310          
1 66183U 25243G   25329.00004630 -.01966672  00000+0 -64497-1 0  9993
2 66183  53.1587  11.7985 0001495  96.8225 184.2075 15.34796369  5798
STARLINK-35317          
1 66184U 25243H   25329.00004630 -.01993231  00000+0 -54054-1 0  9993
2 66184  53.1596  11.7326 0001310  92.9391 222.7380 15.40644645  5732
STARLINK-35377          
1 66185U 25243J   25329.00004630 -.01956748  00000+0 -59547-1 0  9998
2 66185  53.1596  11.7990 0001524  96.6534 185.7511 15.37085919  5796
